STARLINK-36078          
1 67050U 25294W   26007.43106622  .00093415  00000+0  15769-2 0  9990
2 67050  43.0035  28.0862 0002425 286.5857  73.4736 15.50618656  5384
STARLINK-35706          
1 67051U 25294X   26007.43038963  .00779250  00000+0  11657-1 0  9992
2 67051  43.0035  28.0814 0009178 243.2960 116.6961 15.51848198  5386
STARLINK-35720          
1 67052U 25294Y   26007.50002314 -.01431103  00000+0 -26857-1 0  9995
2 67052  43.0006  27.6743 0001802 280.2956 108.9135 15.51005706  4424
STARLINK-35739          
1 67053U 25294Z   26007.50002314 -.02006832  00000+0 -46789-1 0  9990
2 67053  43.0011  27.7027 0001332 274.2984 104.1105 15.44899826  4060
STARLINK-35754          
1 67054U 25294AA  26007.50002314  .00093100  00000+0  22137-2 0  9993
2 67054  43.0008  27.8346 0000875 261.5479  61.7917 15.40634761  4230
STARLINK-35790          
1 67055U 25294AB  26007.50002314  .00088718  00000+0  21101-2 0  9993
2 67055  43.0009  27.8934 0001057 283.3421  15.0846 15.40647376  4438
STARLINK-36143          
1 67056U 25294AC  26007.50002314  .00089978  00000+0  21395-2 0  9998
2 67056  43.0008  28.0130 0000833 299.6453 309.0227 15.40648948  4430
STARLINK-36141          
1 67057U 25294AD  26007.50002314  .00092359  00000+0  21945-2 0  9997
2 67057  43.0008  27.9837 0000602 281.1051 339.9552 15.40660007  4340
STARLINK-35767          
1 67058U 25294AE  26007.50002314  .00089034  00000+0  21178-2 0  9992
2 67058  43.0011  27.9243 0001297 274.5543  11.4397 15.40644048  4233
HULIANWANG DIGUI-119    
1 67059U 25295A   26006.95269770  .00000348  00000+0  22425-3 0  9991
2 67059  50.0071 265.9350 0012710 336.5915  23.4418 14.22814776  3710
HULIANWANG DIGUI-120    
1 67060U 25295B   26006.73691339  .00000311  00000+0  20546-3 0  9991
2 67060  50.0023 266.7858 0011924 337.8430  22.1966 14.23422872  3686
HULIANWANG DIGUI-121    
1 67061U 25295C   26006.87915226  .00000302  00000+0  20295-3 0  9992
2 67061  50.0044 266.1942 0011472 333.9081  26.1253 14.23071842  3708
