CCSDS_OMM_VERS = 2.0
CREATION_DATE  = 
ORIGINATOR     = 

OBJECT_NAME    = STARLINK-36078
OBJECT_ID      = 2025-294W
CENTER_NAME    = EARTH
REF_FRAME      = TEME
TIME_SYSTEM    = UTC
MEAN_ELEMENT_THEORY = SGP/SGP4

EPOCH          = 2026-01-07T10:20:44.121408
MEAN_MOTION    = 15.50618656
ECCENTRICITY   = .0002425
INCLINATION    = 43.0035
RA_OF_ASC_NODE = 28.0862
ARG_OF_PERICENTER = 286.5857
MEAN_ANOMALY   = 73.4736

EPHEMERIS_TYPE = 0
CLASSIFICATION_TYPE = U
NORAD_CAT_ID   = 67050
ELEMENT_SET_NO = 999
REV_AT_EPOCH   = 538
BSTAR          = .15769E-2
MEAN_MOTION_DOT = .93415E-3
MEAN_MOTION_DDOT = 0

CCSDS_OMM_VERS = 2.0
CREATION_DATE  = 
ORIGINATOR     = 

OBJECT_NAME    = STARLINK-35706
OBJECT_ID      = 2025-294X
CENTER_NAME    = EARTH
REF_FRAME      = TEME
TIME_SYSTEM    = UTC
MEAN_ELEMENT_THEORY = SGP/SGP4

EPOCH          = 2026-01-07T10:19:45.664032
MEAN_MOTION    = 15.51848198
ECCENTRICITY   = .0009178
INCLINATION    = 43.0035
RA_OF_ASC_NODE = 28.0814
ARG_OF_PERICENTER = 243.2960
MEAN_ANOMALY   = 116.6961

EPHEMERIS_TYPE = 0
CLASSIFICATION_TYPE = U
NORAD_CAT_ID   = 67051
ELEMENT_SET_NO = 999
REV_AT_EPOCH   = 538
BSTAR          = .11657E-1
MEAN_MOTION_DOT = .77925E-2
MEAN_MOTION_DDOT = 0

CCSDS_OMM_VERS = 2.0
CREATION_DATE  = 
ORIGINATOR     = 

OBJECT_NAME    = STARLINK-35720
OBJECT_ID      = 2025-294Y
CENTER_NAME    = EARTH
REF_FRAME      = TEME
TIME_SYSTEM    = UTC
MEAN_ELEMENT_THEORY = SGP/SGP4

EPOCH          = 2026-01-07T12:00:01.999296
MEAN_MOTION    = 15.51005706
ECCENTRICITY   = .0001802
INCLINATION    = 43.0006
RA_OF_ASC_NODE = 27.6743
ARG_OF_PERICENTER = 280.2956
MEAN_ANOMALY   = 108.9135

EPHEMERIS_TYPE = 0
CLASSIFICATION_TYPE = U
NORAD_CAT_ID   = 67052
ELEMENT_SET_NO = 999
REV_AT_EPOCH   = 442
BSTAR          = -.26857E-1
MEAN_MOTION_DOT = -.1431103E-1
MEAN_MOTION_DDOT = 0

CCSDS_OMM_VERS = 2.0
CREATION_DATE  = 
ORIGINATOR     = 

OBJECT_NAME    = STARLINK-35739
OBJECT_ID      = 2025-294Z
CENTER_NAME    = EARTH
REF_FRAME      = TEME
TIME_SYSTEM    = UTC
MEAN_ELEMENT_THEORY = SGP/SGP4

EPOCH          = 2026-01-07T12:00:01.999296
MEAN_MOTION    = 15.44899826
ECCENTRICITY   = .0001332
INCLINATION    = 43.0011
RA_OF_ASC_NODE = 27.7027
ARG_OF_PERICENTER = 274.2984
MEAN_ANOMALY   = 104.1105

EPHEMERIS_TYPE = 0
CLASSIFICATION_TYPE = U
NORAD_CAT_ID   = 67053
ELEMENT_SET_NO = 999
REV_AT_EPOCH   = 406
BSTAR          = -.46789E-1
MEAN_MOTION_DOT = -.2006832E-1
MEAN_MOTION_DDOT = 0

CCSDS_OMM_VERS = 2.0
CREATION_DATE  = 
ORIGINATOR     = 

OBJECT_NAME    = STARLINK-35754
OBJECT_ID      = 2025-294AA
CENTER_NAME    = EARTH
REF_FRAME      = TEME
TIME_SYSTEM    = UTC
MEAN_ELEMENT_THEORY = SGP/SGP4

EPOCH          = 2026-01-07T12:00:01.999296
MEAN_MOTION    = 15.40634761
ECCENTRICITY   = .0000875
INCLINATION    = 43.0008
RA_OF_ASC_NODE = 27.8346
ARG_OF_PERICENTER = 261.5479
MEAN_ANOMALY   = 61.7917

EPHEMERIS_TYPE = 0
CLASSIFICATION_TYPE = U
NORAD_CAT_ID   = 67054
ELEMENT_SET_NO = 999
REV_AT_EPOCH   = 423
BSTAR          = .22137E-2
MEAN_MOTION_DOT = .931E-3
MEAN_MOTION_DDOT = 0

CCSDS_OMM_VERS = 2.0
CREATION_DATE  = 
ORIGINATOR     = 

OBJECT_NAME    = STARLINK-35790
OBJECT_ID      = 2025-294AB
CENTER_NAME    = EARTH
REF_FRAME      = TEME
TIME_SYSTEM    = UTC
MEAN_ELEMENT_THEORY = SGP/SGP4

EPOCH          = 2026-01-07T12:00:01.999296
MEAN_MOTION    = 15.40647376
ECCENTRICITY   = .0001057
INCLINATION    = 43.0009
RA_OF_ASC_NODE = 27.8934
ARG_OF_PERICENTER = 283.3421
MEAN_ANOMALY   = 15.0846

EPHEMERIS_TYPE = 0
CLASSIFICATION_TYPE = U
NORAD_CAT_ID   = 67055
ELEMENT_SET_NO = 999
REV_AT_EPOCH   = 443
BSTAR          = .21101E-2
MEAN_MOTION_DOT = .88718E-3
MEAN_MOTION_DDOT = 0

CCSDS_OMM_VERS = 2.0
CREATION_DATE  = 
ORIGINATOR     = 

OBJECT_NAME    = STARLINK-36143
OBJECT_ID      = 2025-294AC
CENTER_NAME    = EARTH
REF_FRAME      = TEME
TIME_SYSTEM    = UTC
MEAN_ELEMENT_THEORY = SGP/SGP4

EPOCH          = 2026-01-07T12:00:01.999296
MEAN_MOTION    = 15.40648948
ECCENTRICITY   = .0000833
INCLINATION    = 43.0008
RA_OF_ASC_NODE = 28.0130
ARG_OF_PERICENTER = 299.6453
MEAN_ANOMALY   = 309.0227

EPHEMERIS_TYPE = 0
CLASSIFICATION_TYPE = U
NORAD_CAT_ID   = 67056
ELEMENT_SET_NO = 999
REV_AT_EPOCH   = 443
BSTAR          = .21395E-2
MEAN_MOTION_DOT = .89978E-3
MEAN_MOTION_DDOT = 0

CCSDS_OMM_VERS = 2.0
CREATION_DATE  = 
ORIGINATOR     = 

OBJECT_NAME    = STARLINK-36141
OBJECT_ID      = 2025-294AD
CENTER_NAME    = EARTH
REF_FRAME      = TEME
TIME_SYSTEM    = UTC
MEAN_ELEMENT_THEORY = SGP/SGP4

EPOCH          = 2026-01-07T12:00:01.999296
MEAN_MOTION    = 15.40660007
ECCENTRICITY   = .0000602
INCLINATION    = 43.0008
RA_OF_ASC_NODE = 27.9837
ARG_OF_PERICENTER = 281.1051
MEAN_ANOMALY   = 339.9552

EPHEMERIS_TYPE = 0
CLASSIFICATION_TYPE = U
NORAD_CAT_ID   = 67057
ELEMENT_SET_NO = 999
REV_AT_EPOCH   = 434
BSTAR          = .21945E-2
MEAN_MOTION_DOT = .92359E-3
MEAN_MOTION_DDOT = 0

CCSDS_OMM_VERS = 2.0
CREATION_DATE  = 
ORIGINATOR     = 

OBJECT_NAME    = STARLINK-35767
OBJECT_ID      = 2025-294AE
CENTER_NAME    = EARTH
REF_FRAME      = TEME
TIME_SYSTEM    = UTC
MEAN_ELEMENT_THEORY = SGP/SGP4

EPOCH          = 2026-01-07T12:00:01.999296
MEAN_MOTION    = 15.40644048
ECCENTRICITY   = .0001297
INCLINATION    = 43.0011
RA_OF_ASC_NODE = 27.9243
ARG_OF_PERICENTER = 274.5543
MEAN_ANOMALY   = 11.4397

EPHEMERIS_TYPE = 0
CLASSIFICATION_TYPE = U
NORAD_CAT_ID   = 67058
ELEMENT_SET_NO = 999
REV_AT_EPOCH   = 423
BSTAR          = .21178E-2
MEAN_MOTION_DOT = .89034E-3
MEAN_MOTION_DDOT = 0

CCSDS_OMM_VERS = 2.0
CREATION_DATE  = 
ORIGINATOR     = 

OBJECT_NAME    = HULIANWANG DIGUI-119
OBJECT_ID      = 2025-295A
CENTER_NAME    = EARTH
REF_FRAME      = TEME
TIME_SYSTEM    = UTC
MEAN_ELEMENT_THEORY = SGP/SGP4

EPOCH          = 2026-01-06T22:51:53.081280
MEAN_MOTION    = 14.22814776
ECCENTRICITY   = .001271
INCLINATION    = 50.0071
RA_OF_ASC_NODE = 265.9350
ARG_OF_PERICENTER = 336.5915
MEAN_ANOMALY   = 23.4418

EPHEMERIS_TYPE = 0
CLASSIFICATION_TYPE = U
NORAD_CAT_ID   = 67059
ELEMENT_SET_NO = 999
REV_AT_EPOCH   = 371
BSTAR          = .22425E-3
MEAN_MOTION_DOT = .348E-5
MEAN_MOTION_DDOT = 0

CCSDS_OMM_VERS = 2.0
CREATION_DATE  = 
ORIGINATOR     = 

OBJECT_NAME    = HULIANWANG DIGUI-120
OBJECT_ID      = 2025-295B
CENTER_NAME    = EARTH
REF_FRAME      = TEME
TIME_SYSTEM    = UTC
MEAN_ELEMENT_THEORY = SGP/SGP4

EPOCH          = 2026-01-06T17:41:09.316896
MEAN_MOTION    = 14.23422872
ECCENTRICITY   = .00119245
INCLINATION    = 50.0023
RA_OF_ASC_NODE = 266.7858
ARG_OF_PERICENTER = 337.8430
MEAN_ANOMALY   = 22.1966

EPHEMERIS_TYPE = 0
CLASSIFICATION_TYPE = U
NORAD_CAT_ID   = 67060
ELEMENT_SET_NO = 999
REV_AT_EPOCH   = 368
BSTAR          = .205456E-3
MEAN_MOTION_DOT = .311E-5
MEAN_MOTION_DDOT = 0

CCSDS_OMM_VERS = 2.0
CREATION_DATE  = 
ORIGINATOR     = 

OBJECT_NAME    = HULIANWANG DIGUI-121
OBJECT_ID      = 2025-295C
CENTER_NAME    = EARTH
REF_FRAME      = TEME
TIME_SYSTEM    = UTC
MEAN_ELEMENT_THEORY = SGP/SGP4

EPOCH          = 2026-01-06T21:05:58.755264
MEAN_MOTION    = 14.23071842
ECCENTRICITY   = .0011472
INCLINATION    = 50.0044
RA_OF_ASC_NODE = 266.1942
ARG_OF_PERICENTER = 333.9081
MEAN_ANOMALY   = 26.1253

EPHEMERIS_TYPE = 0
CLASSIFICATION_TYPE = U
NORAD_CAT_ID   = 67061
ELEMENT_SET_NO = 999
REV_AT_EPOCH   = 370
BSTAR          = .20295E-3
MEAN_MOTION_DOT = .302E-5
MEAN_MOTION_DDOT = 0

